[Satellite]
VERSION=1.1
NAME=APSTAR 5 (TELSTAR 18)
NICKNAME=APSTAR 5 (TELSTAR 18)
TLE1=1 28364U 04024A   15054.70150601 -.00000320  00000-0  00000+0 0  9993
TLE2=2 28364   0.0417 282.9787 0002024  31.4152 229.3711  1.00271202 39130
